{"fetched_at":"2026-07-13T07:47:54.571Z","source":"https://celestrak.org/NORAD/elements/gp.php?GROUP=oneweb&FORMAT=JSON","constellation":"oneweb","records":[{"OBJECT_NAME":"ONEWEB-0012","OBJECT_ID":"2019-010A","EPOCH":"2026-07-12T15:16:02.871840","CLASSIFICATION_TYPE":"U","MEAN_MOTION":13.16594268,"ECCENTRICITY":0.0001693,"INCLINATION":87.9075,"RA_OF_ASC_NODE":223.7304,"ARG_OF_PERICENTER":87.8895,"MEAN_ANOMALY":272.243,"EPHEMERIS_TYPE":0,"NORAD_CAT_ID":44057,"ELEMENT_SET_NO":999,"REV_AT_EPOCH":35491,"BSTAR":0.000096914,"MEAN_MOTION_DOT":5e-7,"MEAN_MOTION_DDOT":0},{"OBJECT_NAME":"ONEWEB-0010","OBJECT_ID":"2019-010B","EPOCH":"2026-07-12T14:03:06.938208","CLASSIFICATION_TYPE":"U","MEAN_MOTION":13.1659356,"ECCENTRICITY":0.0002291,"INCLINATION":87.9073,"RA_OF_ASC_NODE":223.737,"ARG_OF_PERICENTER":101.9888,"MEAN_ANOMALY":258.15,"EPHEMERIS_TYPE":0,"NORAD_CAT_ID":44058,"ELEMENT_SET_NO":999,"REV_AT_EPOCH":35495,"BSTAR":0.000068498,"MEAN_MOTION_DOT":3.9e-7,"MEAN_MOTION_DDOT":0},{"OBJECT_NAME":"ONEWEB-0008","OBJECT_ID":"2019-010C","EPOCH":"2026-07-12T12:50:09.237696","CLASSIFICATION_TYPE":"U","MEAN_MOTION":13.16593559,"ECCENTRICITY":0.00021808,"INCLINATION":87.9077,"RA_OF_ASC_NODE":223.7416,"ARG_OF_PERICENTER":87.6271,"MEAN_ANOMALY":272.5109,"EPHEMERIS_TYPE":0,"NORAD_CAT_ID":44059,"ELEMENT_SET_NO":999,"REV_AT_EPOCH":35506,"BSTAR":0.00021237254,"MEAN_MOTION_DOT":9.4e-7,"MEAN_MOTION_DDOT":0},{"OBJECT_NAME":"ONEWEB-0007","OBJECT_ID":"2019-010D","EPOCH":"2026-07-12T15:59:14.286048","CLASSIFICATION_TYPE":"U","MEAN_MOTION":13.15548356,"ECCENTRICITY":0.0001961,"INCLINATION":87.8983,"RA_OF_ASC_NODE":254.1449,"ARG_OF_PERICENTER":106.4468,"MEAN_ANOMALY":253.6878,"EPHEMERIS_TYPE":0,"NORAD_CAT_ID":44060,"ELEMENT_SET_NO":999,"REV_AT_EPOCH":35472,"BSTAR":-0.00013118,"MEAN_MOTION_DOT":-3.7e-7,"MEAN_MOTION_DDOT":0},{"OBJECT_NAME":"ONEWEB-0006","OBJECT_ID":"2019-010E","EPOCH":"2026-07-12T16:04:55.644672","CLASSIFICATION_TYPE":"U","MEAN_MOTION":13.15550953,"ECCENTRICITY":0.0002222,"INCLINATION":87.8992,"RA_OF_ASC_NODE":254.111,"ARG_OF_PERICENTER":98.0787,"MEAN_ANOMALY":262.0595,"EPHEMERIS_TYPE":0,"NORAD_CAT_ID":44061,"ELEMENT_SET_NO":999,"REV_AT_EPOCH":35477,"BSTAR":-0.00017033,"MEAN_MOTION_DOT":-5.1e-7,"MEAN_MOTION_DDOT":0},{"OBJECT_NAME":"ONEWEB-0011","OBJECT_ID":"2019-010F","EPOCH":"2026-07-12T17:08:48.842016","CLASSIFICATION_TYPE":"U","MEAN_MOTION":13.15549733,"ECCENTRICITY":0.0002254,"INCLINATION":87.9004,"RA_OF_ASC_NODE":254.1111,"ARG_OF_PERICENTER":96.8079,"MEAN_ANOMALY":263.3308,"EPHEMERIS_TYPE":0,"NORAD_CAT_ID":44062,"ELEMENT_SET_NO":999,"REV_AT_EPOCH":35477,"BSTAR":0.000057831,"MEAN_MOTION_DOT":3.5e-7,"MEAN_MOTION_DDOT":0},{"OBJECT_NAME":"ONEWEB-0013","OBJECT_ID":"2020-008A","EPOCH":"2026-07-12T12:55:19.053408","CLASSIFICATION_TYPE":"U","MEAN_MOTION":13.09456443,"ECCENTRICITY":0.00010177,"INCLINATION":87.849,"RA_OF_ASC_NODE":47.7074,"ARG_OF_PERICENTER":54.0793,"MEAN_ANOMALY":306.0428,"EPHEMERIS_TYPE":0,"NORAD_CAT_ID":45131,"ELEMENT_SET_NO":999,"REV_AT_EPOCH":30938,"BSTAR":-0.0015700508,"MEAN_MOTION_DOT":-0.00000528,"MEAN_MOTION_DDOT":0},{"OBJECT_NAME":"ONEWEB-0017","OBJECT_ID":"2020-008B","EPOCH":"2026-07-12T13:54:30.539232","CLASSIFICATION_TYPE":"U","MEAN_MOTION":13.10375339,"ECCENTRICITY":0.0001981,"INCLINATION":87.8815,"RA_OF_ASC_NODE":31.2079,"ARG_OF_PERICENTER":92.0847,"MEAN_ANOMALY":268.0507,"EPHEMERIS_TYPE":0,"NORAD_CAT_ID":45132,"ELEMENT_SET_NO":999,"REV_AT_EPOCH":31127,"BSTAR":-0.0017531,"MEAN_MOTION_DOT":-0.00000599,"MEAN_MOTION_DDOT":0},{"OBJECT_NAME":"ONEWEB-0020","OBJECT_ID":"2020-008C","EPOCH":"2026-07-12T13:10:31.823616","CLASSIFICATION_TYPE":"U","MEAN_MOTION":13.10369624,"ECCENTRICITY":0.00018106,"INCLINATION":87.8819,"RA_OF_ASC_NODE":31.2131,"ARG_OF_PERICENTER":85.646,"MEAN_ANOMALY":274.4874,"EPHEMERIS_TYPE":0,"NORAD_CAT_ID":45133,"ELEMENT_SET_NO":999,"REV_AT_EPOCH":31166,"BSTAR":0.0013987117,"MEAN_MOTION_DOT":0.00000501,"MEAN_MOTION_DDOT":0},{"OBJECT_NAME":"ONEWEB-0021","OBJECT_ID":"2020-008D","EPOCH":"2026-07-12T13:32:29.416704","CLASSIFICATION_TYPE":"U","MEAN_MOTION":13.10369415,"ECCENTRICITY":0.0001766,"INCLINATION":87.8807,"RA_OF_ASC_NODE":31.2244,"ARG_OF_PERICENTER":93.3325,"MEAN_ANOMALY":266.8004,"EPHEMERIS_TYPE":0,"NORAD_CAT_ID":45134,"ELEMENT_SET_NO":999,"REV_AT_EPOCH":31197,"BSTAR":-0.00076767,"MEAN_MOTION_DOT":-0.00000255,"MEAN_MOTION_DDOT":0},{"OBJECT_NAME":"ONEWEB-0023","OBJECT_ID":"2020-008F","EPOCH":"2026-07-12T13:48:22.147776","CLASSIFICATION_TYPE":"U","MEAN_MOTION":13.10371056,"ECCENTRICITY":0.0001852,"INCLINATION":87.8819,"RA_OF_ASC_NODE":31.2065,"ARG_OF_PERICENTER":82.5092,"MEAN_ANOMALY":277.6246,"EPHEMERIS_TYPE":0,"NORAD_CAT_ID":45136,"ELEMENT_SET_NO":999,"REV_AT_EPOCH":31140,"BSTAR":-0.0017485,"MEAN_MOTION_DOT":-0.00000598,"MEAN_MOTION_DDOT":0},{"OBJECT_NAME":"ONEWEB-0024","OBJECT_ID":"2020-008G","EPOCH":"2026-07-12T13:08:16.430496","CLASSIFICATION_TYPE":"U","MEAN_MOTION":13.10369963,"ECCENTRICITY":0.00018892,"INCLINATION":87.8836,"RA_OF_ASC_NODE":31.207,"ARG_OF_PERICENTER":90.5894,"MEAN_ANOMALY":269.545,"EPHEMERIS_TYPE":0,"NORAD_CAT_ID":45137,"ELEMENT_SET_NO":999,"REV_AT_EPOCH":31156,"BSTAR":0.0014851056,"MEAN_MOTION_DOT":0.00000531,"MEAN_MOTION_DDOT":0},{"OBJECT_NAME":"ONEWEB-0025","OBJECT_ID":"2020-008H","EPOCH":"2026-07-12T13:07:52.972032","CLASSIFICATION_TYPE":"U","MEAN_MOTION":13.10369772,"ECCENTRICITY":0.00019287,"INCLINATION":87.8825,"RA_OF_ASC_NODE":31.1951,"ARG_OF_PERICENTER":67.1417,"MEAN_ANOMALY":292.9914,"EPHEMERIS_TYPE":0,"NORAD_CAT_ID":45138,"ELEMENT_SET_NO":999,"REV_AT_EPOCH":31189,"BSTAR":0.0019540683,"MEAN_MOTION_DOT":0.00000695,"MEAN_MOTION_DDOT":0},{"OBJECT_NAME":"ONEWEB-0026","OBJECT_ID":"2020-008J","EPOCH":"2026-07-12T13:34:10.357824","CLASSIFICATION_TYPE":"U","MEAN_MOTION":13.11417862,"ECCENTRICITY":0.0001974,"INCLINATION":87.8882,"RA_OF_ASC_NODE":16.0139,"ARG_OF_PERICENTER":90.9397,"MEAN_ANOMALY":269.1957,"EPHEMERIS_TYPE":0,"NORAD_CAT_ID":45139,"ELEMENT_SET_NO":999,"REV_AT_EPOCH":31443,"BSTAR":0.001235,"MEAN_MOTION_DOT":0.0000045,"MEAN_MOTION_DDOT":0},{"OBJECT_NAME":"ONEWEB-0028","OBJECT_ID":"2020-008K","EPOCH":"2026-07-12T12:58:45.312672","CLASSIFICATION_TYPE":"U","MEAN_MOTION":13.11417299,"ECCENTRICITY":0.00013722,"INCLINATION":87.8879,"RA_OF_ASC_NODE":16.0267,"ARG_OF_PERICENTER":80.5733,"MEAN_ANOMALY":279.555,"EPHEMERIS_TYPE":0,"NORAD_CAT_ID":45140,"ELEMENT_SET_NO":999,"REV_AT_EPOCH":31194,"BSTAR":-0.0015024831,"MEAN_MOTION_DOT":-0.0000052,"MEAN_MOTION_DDOT":0},{"OBJECT_NAME":"ONEWEB-0032","OBJECT_ID":"2020-008L","EPOCH":"2026-07-12T13:57:08.767872","CLASSIFICATION_TYPE":"U","MEAN_MOTION":13.10374426,"ECCENTRICITY":0.0001494,"INCLINATION":87.8819,"RA_OF_ASC_NODE":31.2098,"ARG_OF_PERICENTER":72.9338,"MEAN_ANOMALY":287.1953,"EPHEMERIS_TYPE":0,"NORAD_CAT_ID":45141,"ELEMENT_SET_NO":999,"REV_AT_EPOCH":31162,"BSTAR":-0.0017118,"MEAN_MOTION_DOT":-0.00000585,"MEAN_MOTION_DDOT":0}]}
